{"features": [{"geometry": {"coordinates": [6.977882, 50.934334], "type": "Point"}, "properties": {"Apotheke": "Marien-Apotheke", "Datum": "22.02.2022", "Ort": "K\u00f6ln", "Ortsteil": "Deutz", "PLZ": "50679", "Stra\u00dfe": "Alarichstr. 1", "Telefon": "0221/812312"}, "type": "Feature"}, {"geometry": {"coordinates": [6.962933, 50.908618], "type": "Point"}, "properties": {"Apotheke": "Artus Apotheke", "Datum": "22.02.2022", "Ort": "K\u00f6ln", "Ortsteil": "Bayenthal", "PLZ": "50968", "Stra\u00dfe": "Bonner Str. 244", "Telefon": "0221/382014"}, "type": "Feature"}, {"geometry": {"coordinates": [6.94735, 50.938728], "type": "Point"}, "properties": {"Apotheke": "Schwanen-Apotheke", "Datum": "22.02.2022", "Ort": "K\u00f6ln", "Ortsteil": "Altstadt-Nord", "PLZ": "50667", "Stra\u00dfe": "Breite Str. 141-143", "Telefon": "0221/9253654"}, "type": "Feature"}, {"geometry": {"coordinates": [6.916602, 50.920589], "type": "Point"}, "properties": {"Apotheke": "Eifel-Apotheke", "Datum": "22.02.2022", "Ort": "K\u00f6ln", "Ortsteil": "S\u00fclz", "PLZ": "50937", "Stra\u00dfe": "Z\u00fclpicher Str. 341", "Telefon": "0221/448873"}, "type": "Feature"}, {"geometry": {"coordinates": [6.97736, 50.96599], "type": "Point"}, "properties": {"Apotheke": "Fontane-Apotheke", "Datum": "22.02.2022", "Ort": "K\u00f6ln", "Ortsteil": "Riehl", "PLZ": "50735", "Stra\u00dfe": "Riehler Tal 2", "Telefon": "0221/764412"}, "type": "Feature"}, {"geometry": {"coordinates": [7.060837, 50.935515], "type": "Point"}, "properties": {"Apotheke": "Kranich-Apotheke", "Datum": "22.02.2022", "Ort": "K\u00f6ln", "Ortsteil": "Neubr\u00fcck", "PLZ": "51109", "Stra\u00dfe": "Thomas-Dehler-Weg 1", "Telefon": "0221/8908989"}, "type": "Feature"}, {"geometry": {"coordinates": [6.890446, 50.879959], "type": "Point"}, "properties": {"Apotheke": "Stern-Apotheke", "Datum": "22.02.2022", "Ort": "H\u00fcrth", "Ortsteil": "Hermuelheim", "PLZ": "50354", "Stra\u00dfe": "Luxemburger Str. 313", "Telefon": "02233/72315"}, "type": "Feature"}, {"geometry": {"coordinates": [7.071749, 50.977923], "type": "Point"}, "properties": {"Apotheke": "Rosen Apotheke", "Datum": "22.02.2022", "Ort": "K\u00f6ln", "Ortsteil": "Ecke Dellbr\u00fccker Hauptstra\u00dfe", "PLZ": "51069", "Stra\u00dfe": "Idastra\u00dfe 54", "Telefon": "0221/681859"}, "type": "Feature"}, {"geometry": {"coordinates": [6.834654, 50.942413], "type": "Point"}, "properties": {"Apotheke": "Goethe-Apotheke", "Datum": "22.02.2022", "Ort": "K\u00f6ln", "Ortsteil": "Weiden", "PLZ": "50858", "Stra\u00dfe": "Goethestr. 1", "Telefon": "02234/75329"}, "type": "Feature"}, {"geometry": {"coordinates": [6.97869, 50.8229], "type": "Point"}, "properties": {"Apotheke": "Apotheke am Bahnhof", "Datum": "22.02.2022", "Ort": "Wesseling", "Ortsteil": "", "PLZ": "50389", "Stra\u00dfe": "Flach-Fengler-Str. 51", "Telefon": "02236/45501"}, "type": "Feature"}], "type": "FeatureCollection"}